[{"OBJECT_NAME":"STARLINK-35964","OBJECT_ID":"2025-278F","EPOCH":"2026-03-09T11:15:11.371104","MEAN_MOTION":15.27590262,"ECCENTRICITY":0.00023157,"INCLINATION":43.0059,"RA_OF_ASC_NODE":100.7099,"ARG_OF_PERICENTER":252.2237,"MEAN_ANOMALY":107.8362,"EPHEMERIS_TYPE":0,"CLASSIFICATION_TYPE":"U","NORAD_CAT_ID":66796,"ELEMENT_SET_NO":999,"REV_AT_EPOCH":1534,"BSTAR":0.0010740251,"MEAN_MOTION_DOT":0.00029421,"MEAN_MOTION_DDOT":0},{"OBJECT_NAME":"CZ-6A DEB","OBJECT_ID":"2023-168D","EPOCH":"2026-03-09T19:03:52.964928","MEAN_MOTION":15.28240044,"ECCENTRICITY":0.00013417,"INCLINATION":97.7802,"RA_OF_ASC_NODE":98.3362,"ARG_OF_PERICENTER":174.0661,"MEAN_ANOMALY":186.0594,"EPHEMERIS_TYPE":0,"CLASSIFICATION_TYPE":"U","NORAD_CAT_ID":58202,"ELEMENT_SET_NO":999,"REV_AT_EPOCH":12922,"BSTAR":0.0014474773,"MEAN_MOTION_DOT":0.00039923,"MEAN_MOTION_DDOT":0}]
